{
  "norad_id": 50204,
  "name": "STARLINK-3254",
  "history": [
    {
      "epoch": "2026-03-28T20:58:11.103168Z",
      "apogee_km": 540.6566905948839,
      "perigee_km": 538.7778013816733,
      "latitude_deg": 3.13230392456444e-05,
      "longitude_deg": 12.17552710620071,
      "height_km": 540.5750136434672,
      "semi_major_axis_km": 6917.854245988278,
      "eccentricity": 0.0001358,
      "inclination_deg": 53.2172,
      "raan_deg": 153.0097,
      "arg_perigee_deg": 87.6866,
      "mean_anomaly_deg": 272.4282,
      "mean_motion_rev_day": 15.08848553
    },
    {
      "epoch": "2026-03-29T08:05:55.214304Z",
      "apogee_km": 540.7395797405943,
      "perigee_km": 538.8727036043829,
      "latitude_deg": 4.5295988801753305e-05,
      "longitude_deg": -157.29510727606745,
      "height_km": 540.8950305167981,
      "semi_major_axis_km": 6917.943141672488,
      "eccentricity": 0.00013493,
      "inclination_deg": 53.217,
      "raan_deg": 150.9299,
      "arg_perigee_deg": 101.9445,
      "mean_anomaly_deg": 258.1699,
      "mean_motion_rev_day": 15.0881947
    },
    {
      "epoch": "2026-03-30T14:18:14.473440Z",
      "apogee_km": 540.6966429935483,
      "perigee_km": 538.7909051978995,
      "latitude_deg": 1.9453441550647603e-05,
      "longitude_deg": 102.73373849891381,
      "height_km": 540.5923526344169,
      "semi_major_axis_km": 6917.880774095724,
      "eccentricity": 0.00013774,
      "inclination_deg": 53.2169,
      "raan_deg": 145.2795,
      "arg_perigee_deg": 87.1697,
      "mean_anomaly_deg": 272.9453,
      "mean_motion_rev_day": 15.08839874
    },
    {
      "epoch": "2026-03-30T20:39:46.687392Z",
      "apogee_km": 540.660160275359,
      "perigee_km": 538.7924755367912,
      "latitude_deg": 1.4618669443933266e-05,
      "longitude_deg": 5.897657682552594,
      "height_km": 540.5177452961547,
      "semi_major_axis_km": 6917.863317906074,
      "eccentricity": 0.00013499,
      "inclination_deg": 53.2167,
      "raan_deg": 144.0888,
      "arg_perigee_deg": 83.5915,
      "mean_anomaly_deg": 276.5231,
      "mean_motion_rev_day": 15.08845585
    },
    {
      "epoch": "2026-03-31T20:30:33.914016Z",
      "apogee_km": 540.4761924750665,
      "perigee_km": 538.9404308158819,
      "latitude_deg": 1.9202255750468536e-05,
      "longitude_deg": 2.760745874742586,
      "height_km": 540.4529391072278,
      "semi_major_axis_km": 6917.845311645474,
      "eccentricity": 0.000111,
      "inclination_deg": 53.2138,
      "raan_deg": 139.628,
      "arg_perigee_deg": 78.6537,
      "mean_anomaly_deg": 281.458,
      "mean_motion_rev_day": 15.08851476
    },
    {
      "epoch": "2026-04-01T20:21:20.170368Z",
      "apogee_km": 540.7040825621425,
      "perigee_km": 538.6951428098182,
      "latitude_deg": -2.7821080551769587e-05,
      "longitude_deg": -0.37125055039151045,
      "height_km": 540.4018983477375,
      "semi_major_axis_km": 6917.83661268598,
      "eccentricity": 0.0001452,
      "inclination_deg": 53.2155,
      "raan_deg": 135.1681,
      "arg_perigee_deg": 78.914,
      "mean_anomaly_deg": 281.2015,
      "mean_motion_rev_day": 15.08854322
    },
    {
      "epoch": "2026-04-02T20:12:06.912288Z",
      "apogee_km": 540.6220400768743,
      "perigee_km": 538.7771914081877,
      "latitude_deg": -1.1697641264506152e-05,
      "longitude_deg": -3.5060292345955846,
      "height_km": 540.4565487207375,
      "semi_major_axis_km": 6917.836615742531,
      "eccentricity": 0.00013334,
      "inclination_deg": 53.2162,
      "raan_deg": 130.7074,
      "arg_perigee_deg": 81.3511,
      "mean_anomaly_deg": 278.7632,
      "mean_motion_rev_day": 15.08854321
    },
    {
      "epoch": "2026-04-03T08:55:12.618912Z",
      "apogee_km": 540.7553140889395,
      "perigee_km": 538.7462211234715,
      "latitude_deg": 3.8015644012832505e-05,
      "longitude_deg": 162.81811016801396,
      "height_km": 540.6512270808478,
      "semi_major_axis_km": 6917.887767606206,
      "eccentricity": 0.00014521,
      "inclination_deg": 53.2174,
      "raan_deg": 128.3276,
      "arg_perigee_deg": 90.2788,
      "mean_anomaly_deg": 269.8371,
      "mean_motion_rev_day": 15.08837586
    },
    {
      "epoch": "2026-04-04T11:56:46.225536Z",
      "apogee_km": 540.7523997878352,
      "perigee_km": 538.7693151880076,
      "latitude_deg": 5.0398214890151633e-05,
      "longitude_deg": 111.26407279778736,
      "height_km": 540.6541682669003,
      "semi_major_axis_km": 6917.897857487921,
      "eccentricity": 0.00014333,
      "inclination_deg": 53.2176,
      "raan_deg": 123.2735,
      "arg_perigee_deg": 89.8668,
      "mean_anomaly_deg": 270.2489,
      "mean_motion_rev_day": 15.08834285
    },
    {
      "epoch": "2026-04-05T08:36:47.144736Z",
      "apogee_km": 540.6767793751005,
      "perigee_km": 538.8540504468183,
      "latitude_deg": 9.509367088511288e-06,
      "longitude_deg": 156.5452509492162,
      "height_km": 540.6155900987529,
      "semi_major_axis_km": 6917.902414910959,
      "eccentricity": 0.00013174,
      "inclination_deg": 53.2167,
      "raan_deg": 119.4073,
      "arg_perigee_deg": 87.1374,
      "mean_anomaly_deg": 272.9769,
      "mean_motion_rev_day": 15.08832794
    },
    {
      "epoch": "2026-04-05T18:09:05.991840Z",
      "apogee_km": 540.6609634036267,
      "perigee_km": 538.8581595597052,
      "latitude_deg": 3.3526381760152355e-07,
      "longitude_deg": 11.290578721707965,
      "height_km": 540.5878396858234,
      "semi_major_axis_km": 6917.896561481666,
      "eccentricity": 0.0001303,
      "inclination_deg": 53.2166,
      "raan_deg": 117.6229,
      "arg_perigee_deg": 85.7102,
      "mean_anomaly_deg": 274.4039,
      "mean_motion_rev_day": 15.08834709
    },
    {
      "epoch": "2026-04-06T05:16:47.914464Z",
      "apogee_km": 540.6308270805375,
      "perigee_km": 538.8836437124464,
      "latitude_deg": -2.65485496328903e-05,
      "longitude_deg": -158.17284337761456,
      "height_km": 540.5821682390866,
      "semi_major_axis_km": 6917.894235396492,
      "eccentricity": 0.00012628,
      "inclination_deg": 53.2165,
      "raan_deg": 115.5412,
      "arg_perigee_deg": 85.35,
      "mean_anomaly_deg": 274.7636,
      "mean_motion_rev_day": 15.0883547
    },
    {
      "epoch": "2026-04-07T09:53:44.264832Z",
      "apogee_km": 540.6571346480378,
      "perigee_km": 538.8302607133937,
      "latitude_deg": 2.546476027766151e-05,
      "longitude_deg": 126.06459584751296,
      "height_km": 540.5503986955412,
      "semi_major_axis_km": 6917.8806976807155,
      "eccentricity": 0.00013204,
      "inclination_deg": 53.2165,
      "raan_deg": 110.1886,
      "arg_perigee_deg": 84.4104,
      "mean_anomaly_deg": 275.7039,
      "mean_motion_rev_day": 15.08839899
    },
    {
      "epoch": "2026-04-07T17:50:39.817824Z",
      "apogee_km": 540.6567743712003,
      "perigee_km": 538.8180033586386,
      "latitude_deg": -2.6487612846172253e-05,
      "longitude_deg": 5.0194412800118835,
      "height_km": 540.4829375414038,
      "semi_major_axis_km": 6917.874388864919,
      "eccentricity": 0.0001329,
      "inclination_deg": 53.2164,
      "raan_deg": 108.7014,
      "arg_perigee_deg": 80.6021,
      "mean_anomaly_deg": 279.5121,
      "mean_motion_rev_day": 15.08841963
    },
    {
      "epoch": "2026-04-08T06:33:45.402624Z",
      "apogee_km": 540.772973319391,
      "perigee_km": 538.7338559407735,
      "latitude_deg": 4.383155100010627e-06,
      "longitude_deg": 171.34457398393695,
      "height_km": 540.4915591203361,
      "semi_major_axis_km": 6917.890414630082,
      "eccentricity": 0.00014738,
      "inclination_deg": 53.2171,
      "raan_deg": 106.3221,
      "arg_perigee_deg": 81.1193,
      "mean_anomaly_deg": 278.9966,
      "mean_motion_rev_day": 15.0883672
    },
    {
      "epoch": "2026-04-09T06:24:32.270688Z",
      "apogee_km": 540.6535575038142,
      "perigee_km": 538.8348465358031,
      "latitude_deg": 2.535351887201756e-05,
      "longitude_deg": 168.2096680691021,
      "height_km": 540.5336209757123,
      "semi_major_axis_km": 6917.881202019808,
      "eccentricity": 0.00013145,
      "inclination_deg": 53.216,
      "raan_deg": 101.8618,
      "arg_perigee_deg": 83.2926,
      "mean_anomaly_deg": 276.8216,
      "mean_motion_rev_day": 15.08839734
    },
    {
      "epoch": "2026-04-10T06:15:19.264896Z",
      "apogee_km": 540.6516954518038,
      "perigee_km": 538.847510625731,
      "latitude_deg": -1.5897354262827692e-05,
      "longitude_deg": 165.07398911657245,
      "height_km": 540.5258962660808,
      "semi_major_axis_km": 6917.886603038767,
      "eccentricity": 0.0001304,
      "inclination_deg": 53.2162,
      "raan_deg": 97.4013,
      "arg_perigee_deg": 82.3952,
      "mean_anomaly_deg": 277.7188,
      "mean_motion_rev_day": 15.08837967
    }
  ]
}